{
    "links": {
        "self": "http://www.neowsapp.com/rest/v1/neo/3634442?api_key=iIulBulltgU6a56xZRHN4H3l9WmuAYTsLGpBGhQ2"
    },
    "id": "3634442",
    "neo_reference_id": "3634442",
    "name": "(2013 GC55)",
    "designation": "2013 GC55",
    "nasa_jpl_url": "http://ssd.jpl.nasa.gov/sbdb.cgi?sstr=3634442",
    "absolute_magnitude_h": 24.5,
    "estimated_diameter": {
        "kilometers": {
            "estimated_diameter_min": 0.0334622374,
            "estimated_diameter_max": 0.0748238376
        },
        "meters": {
            "estimated_diameter_min": 33.4622374455,
            "estimated_diameter_max": 74.8238376074
        },
        "miles": {
            "estimated_diameter_min": 0.0207924639,
            "estimated_diameter_max": 0.0464933628
        },
        "feet": {
            "estimated_diameter_min": 109.7842471007,
            "estimated_diameter_max": 245.4850393757
        }
    },
    "is_potentially_hazardous_asteroid": false,
    "close_approach_data": [
        {
            "close_approach_date": "2013-04-16",
            "close_approach_date_full": "2013-Apr-16 16:57",
            "epoch_date_close_approach": 1366131420000,
            "relative_velocity": {
                "kilometers_per_second": "11.2614210357",
                "kilometers_per_hour": "40541.1157286518",
                "miles_per_hour": "25190.6727148392"
            },
            "miss_distance": {
                "astronomical": "0.0509062918",
                "lunar": "19.8025475102",
                "kilometers": "7615472.822878466",
                "miles": "4732035.3847401908"
            },
            "orbiting_body": "Earth"
        }
    ],
    "orbital_data": {
        "orbit_id": "9",
        "orbit_determination_date": "2017-04-06 08:46:11",
        "first_observation_date": "2013-04-10",
        "last_observation_date": "2013-04-22",
        "data_arc_in_days": 12,
        "observations_used": 40,
        "orbit_uncertainty": "8",
        "minimum_orbit_intersection": ".0487318",
        "jupiter_tisserand_invariant": "4.166",
        "epoch_osculation": "2456396.5",
        "eccentricity": ".3721028737349468",
        "semi_major_axis": "1.638369202768923",
        "inclination": "18.05489002162632",
        "ascending_node_longitude": "22.60696420120341",
        "orbital_period": "765.9776370502382",
        "perihelion_distance": "1.028727314179773",
        "perihelion_argument": "204.8662744416112",
        "aphelion_distance": "2.248011091358073",
        "perihelion_time": "2456418.876736377816",
        "mean_anomaly": "349.4832111195363",
        "mean_motion": ".4699876113698979",
        "equinox": "J2000",
        "orbit_class": {
            "orbit_class_type": "AMO",
            "orbit_class_description": "Near-Earth asteroid orbits similar to that of 1221 Amor",
            "orbit_class_range": "1.017 AU < q (perihelion) < 1.3 AU"
        }
    },
    "is_sentry_object": false
}